NORAD_CAT_ID,OBJECT_NAME,OBJECT_TYPE,EPOCH,MEAN_MOTION,ECCENTRICITY,INCLINATION,RA_OF_ASC_NODE,ARG_OF_PERICENTER,MEAN_ANOMALY,BSTAR,MEAN_MOTION_DOT,MEAN_MOTION_DDOT,TLE_LINE0,TLE_LINE1,TLE_LINE2,SEMIMAJOR_AXIS,PERIOD,APOGEE,PERIGEE,DECAYED
52116.0,STARLINK-3735,PAYLOAD,2022-07-15 22:00:00,15.08862353,0.0001769,53.2164,302.156,39.5833,260.8865,-0.0014603,-0.00023468,0.0,0 STARLINK-3735,1 52116U 22029AE  22196.91667824 -.00023468  00000-0 -14603-2 0  9994,2 52116  53.2164 302.1560 0001769  39.5833 260.8865 15.08862353 19577,6917.812,95.436,540.901,538.453,0.0
52116.0,STARLINK-3735,PAYLOAD,2022-07-16 14:00:01,15.08855936,0.0001764999999999,53.2161,299.164,39.0585,284.6462,-0.0015271,-0.0002452,0.0,0 STARLINK-3735,1 52116U 22029AE  22197.58334491 -.00024520  00000-0 -15271-2 0  9991,2 52116  53.2161 299.1640 0001765  39.0585 284.6462 15.08855936 19670,6917.831999999999,95.437,540.918,538.476,0.0
52116.0,STARLINK-3735,PAYLOAD,2022-07-16 22:00:00,15.08874093,0.0001709,53.2156,297.6669,37.3051,298.0094,-0.0015787,-0.00025349,0.0,0 STARLINK-3735,1 52116U 22029AE  22197.91667824 -.00025349  00000-0 -15787-2 0  9999,2 52116  53.2156 297.6669 0001709  37.3051 298.0094 15.08874093 19726,6917.776,95.435,540.823,538.4590000000002,0.0
52116.0,STARLINK-3735,PAYLOAD,2022-07-17 14:00:01,15.08856726,0.0001894,53.2154,294.6749,41.7831,316.7583,-0.0024897,-0.00039712,0.0,0 STARLINK-3735,1 52116U 22029AE  22198.58334491 -.00039712  00000-0 -24897-2 0  9995,2 52116  53.2154 294.6749 0001894  41.7831 316.7583 15.08856726  1309,6917.829000000002,95.436,541.005,538.384,0.0
52116.0,STARLINK-3735,PAYLOAD,2022-07-17 22:00:00,15.08847974,0.0001822,53.2158,293.1808,39.719,330.4173,-0.0043662,-0.00069126,0.0,0 STARLINK-3735,1 52116U 22029AE  22198.91667824 -.00069126  00000-0 -43662-2 0  9994,2 52116  53.2158 293.1808 0001822  39.7190 330.4173 15.08847974  1302,6917.856,95.437,540.981,538.461,0.0
52116.0,STARLINK-3735,PAYLOAD,2022-07-18 06:00:00,15.08800203,0.0001710999999999,53.215,291.6803,46.4982,335.2036,0.0021607,0.0003423,0.0,0 STARLINK-3735,1 52116U 22029AE  22199.25001157  .00034230  00000-0  21607-2 0  9994,2 52116  53.2150 291.6803 0001711  46.4982 335.2036 15.08800203 19936,6918.002,95.44,541.0509999999998,538.683,0.0
52116.0,STARLINK-3735,PAYLOAD,2022-07-18 14:00:01,15.08821793,0.0001954,53.2149,290.1856,43.402,349.8855,0.00065218,0.00010102,0.0,0 STARLINK-3735,1 52116U 22029AE  22199.58334491  .00010102  00000-0  65218-3 0  9999,2 52116  53.2149 290.1856 0001954  43.4020 349.8855 15.08821793  1304,6917.936,95.439,541.153,538.4490000000002,0.0
52116.0,STARLINK-3735,PAYLOAD,2022-07-18 22:00:00,15.08849601,0.000189,53.2149,288.6883,42.5455,2.3165,-0.0016395,-0.00026293,0.0,0 STARLINK-3735,1 52116U 22029AE  22199.91667824 -.00026293  00000-0 -16395-2 0  9996,2 52116  53.2149 288.6883 0001890  42.5455   2.3165 15.08849601  1300,6917.851,95.437,541.024,538.409,0.0
52116.0,STARLINK-3735,PAYLOAD,2022-07-19 14:00:01,15.08862198,0.0002007,53.215,285.696,41.8635,26.2201,-0.0019171,-0.00030689,0.0,0 STARLINK-3735,1 52116U 22029AE  22200.58334491 -.00030689  00000-0 -19171-2 0  9992,2 52116  53.2150 285.6960 0002007  41.8635  26.2201 15.08862198 20132,6917.813,95.436,541.066,538.289,0.0
52116.0,STARLINK-3735,PAYLOAD,2022-07-19 22:00:00,15.08875646,0.0001959,53.2161,284.2027,40.2575,39.4168,-0.0068396999999999,-0.00107627,0.0,0 STARLINK-3735,1 52116U 22029AE  22200.91667824 -.00107627  00000-0 -68397-2 0  9999,2 52116  53.2161 284.2027 0001959  40.2575  39.4168 15.08875646  1302,6917.771,95.435,540.992,538.281,0.0
52116.0,STARLINK-3735,PAYLOAD,2022-07-20 14:00:01,15.08847243,0.0002089,53.2155,281.2063,41.8287,61.0835,-8.8274e-05,-1.693e-05,0.0,0 STARLINK-3735,1 52116U 22029AE  22201.58334491 -.00001693  00000-0 -88274-4 0  9998,2 52116  53.2155 281.2063 0002089  41.8287  61.0835 15.08847243  1308,6917.858,95.437,541.168,538.278,0.0
52116.0,STARLINK-3735,PAYLOAD,2022-07-20 22:00:01,15.08851264,0.0001875999999999,53.2156,279.7086,40.2819,74.2918,-0.0050923,-0.00080454,0.0,0 STARLINK-3735,1 52116U 22029AE  22201.91668981 -.00080454  00000-0 -50923-2 0  9999,2 52116  53.2156 279.7086 0001876  40.2819  74.2918 15.08851264 20333,6917.846,95.437,541.009,538.413,0.0
52116.0,STARLINK-3735,PAYLOAD,2022-07-21 08:00:01,15.08816283,0.0001819,53.2159,277.8382,40.6945,178.2686,-0.0009067,-0.0001468,0.0,0 STARLINK-3735,1 52116U 22029AE  22202.33334491 -.00014680  00000-0 -90670-3 0  9994,2 52116  53.2159 277.8382 0001819  40.6945 178.2686 15.08816283 20390,6917.953,95.439,541.076,538.56,0.0
52116.0,STARLINK-3735,PAYLOAD,2022-07-21 14:00:01,15.08792994,0.0001984,53.2159,276.717,37.173,100.5271,0.0019955,0.00031573,0.0,0 STARLINK-3735,1 52116U 22029AE  22202.58335648  .00031573  00000-0  19955-2 0  9990,2 52116  53.2159 276.7170 0001984  37.1730 100.5271 15.08792994  1309,6918.024,95.441,541.262,538.5169999999998,0.0
52116.0,STARLINK-3735,PAYLOAD,2022-07-21 22:00:00,15.08821999,0.0001838,53.2159,275.2194,38.8764,110.3101,-0.00099551,-0.00016089,0.0,0 STARLINK-3735,1 52116U 22029AE  22202.91667824 -.00016089  00000-0 -99551-3 0  9999,2 52116  53.2159 275.2194 0001838  38.8764 110.3101 15.08821999  1301,6917.935,95.439,541.072,538.529,0.0
52116.0,STARLINK-3735,PAYLOAD,2022-07-22 06:00:00,15.08827799,0.0001801,53.2162,273.7228,42.5528,118.1961,0.00017396,2.481e-05,0.0,0 STARLINK-3735,1 52116U 22029AE  22203.25001157  .00002481  00000-0  17396-3 0  9994,2 52116  53.2162 273.7228 0001801  42.5528 118.1961 15.08827799 20536,6917.918000000002,95.438,541.029,538.5369999999998,0.0
52116.0,STARLINK-3735,PAYLOAD,2022-07-22 22:00:00,15.08844063,0.0001831999999999,53.2158,270.7302,39.3383,144.5841,-0.00048284,-7.965e-05,0.0,0 STARLINK-3735,1 52116U 22029AE  22203.91667824 -.00007965  00000-0 -48284-3 0  9990,2 52116  53.2158 270.7302 0001832  39.3383 144.5841 15.08844063  1305,6917.868,95.437,541.0,538.466,0.0
52116.0,STARLINK-3735,PAYLOAD,2022-07-23 14:00:01,15.08831066,0.000202,53.2158,267.7389,38.3439,168.8392,0.0016672,0.00026339,0.0,0 STARLINK-3735,1 52116U 22029AE  22204.58335648  .00026339  00000-0  16672-2 0  9999,2 52116  53.2158 267.7389 0002020  38.3439 168.8392 15.08831066 20734,6917.908,95.438,541.17,538.375,0.0
52116.0,STARLINK-3735,PAYLOAD,2022-07-23 22:00:00,15.08845476,0.0001885999999999,53.2155,266.241,42.3599,176.3684,-0.0016285999999999,-0.00026118,0.0,0 STARLINK-3735,1 52116U 22029AE  22204.91667824 -.00026118  00000-0 -16286-2 0  9998,2 52116  53.2155 266.2410 0001886  42.3599 176.3684 15.08845476  1301,6917.864000000001,95.437,541.033,538.424,0.0
52116.0,STARLINK-3735,PAYLOAD,2022-07-24 06:00:00,15.08843128,0.0001899999999999,53.2155,264.745,46.5017,183.8066,-0.00078414,-0.00012747,0.0,0 STARLINK-3735,1 52116U 22029AE  22205.25001157 -.00012747  00000-0 -78414-3 0  9992,2 52116  53.2155 264.7450 0001900  46.5017 183.8066 15.08843128 20834,6917.871,95.437,541.05,538.4209999999998,0.0
52116.0,STARLINK-3735,PAYLOAD,2022-07-24 14:00:01,15.08811965,0.0002093,53.2152,263.2501,41.2862,200.6199,0.0027199,0.00043232,0.0,0 STARLINK-3735,1 52116U 22029AE  22205.58334491  .00043232  00000-0  27199-2 0  9992,2 52116  53.2152 263.2501 0002093  41.2862 200.6199 15.08811965  1306,6917.965999999999,95.439,541.279,538.383,0.0
52116.0,STARLINK-3735,PAYLOAD,2022-07-24 22:00:00,15.08833799,0.0001928,53.2149,261.7521,44.3924,209.0975,0.0001385999999999,1.918e-05,0.0,0 STARLINK-3735,1 52116U 22029AE  22205.91667824  .00001918  00000-0  13860-3 0  9994,2 52116  53.2149 261.7521 0001928  44.3924 209.0975 15.08833799  1300,6917.899,95.438,541.0980000000002,538.431,0.0
52116.0,STARLINK-3735,PAYLOAD,2022-07-25 14:00:01,15.08819922,0.0002136,53.2154,258.7611,41.88800000000001,234.7926,0.0028082,0.00044664,0.0,0 STARLINK-3735,1 52116U 22029AE  22206.58334491  .00044664  00000-0  28082-2 0  9995,2 52116  53.2154 258.7611 0002136  41.8880 234.7926 15.08819922  1300,6917.941999999999,95.439,541.284,538.3290000000002,0.0
52116.0,STARLINK-3735,PAYLOAD,2022-07-25 22:00:00,15.08836793,0.0001988,53.2162,257.263,45.0435,243.232,0.00060476,9.349e-05,0.0,0 STARLINK-3735,1 52116U 22029AE  22206.91667824  .00009349  00000-0  60476-3 0  9996,2 52116  53.2162 257.2630 0001988  45.0435 243.2320 15.08836793  1308,6917.89,95.438,541.13,538.38,0.0
52116.0,STARLINK-3735,PAYLOAD,2022-07-26 06:00:00,15.08861763,0.0002038,53.2164,255.767,47.0412,252.8243,-0.0013966,-0.0002246,0.0,0 STARLINK-3735,1 52116U 22029AE  22207.25001157 -.00022460  00000-0 -13966-2 0  9997,2 52116  53.2164 255.7670 0002038  47.0412 252.8243 15.08861763 21139,6917.814,95.436,541.089,538.269,0.0
52116.0,STARLINK-3735,PAYLOAD,2022-07-26 14:00:01,15.08832306,0.0002208,53.2161,254.272,42.2498,269.2367,0.0029973,0.00047728,0.0,0 STARLINK-3735,1 52116U 22029AE  22207.58334491  .00047728  00000-0  29973-2 0  9990,2 52116  53.2161 254.2720 0002208  42.2498 269.2367 15.08832306  1303,6917.904,95.438,541.2959999999998,538.241,0.0
52116.0,STARLINK-3735,PAYLOAD,2022-07-26 22:00:00,15.08846479,0.0002054,53.2162,252.7738,45.5727,277.5266,0.0014263,0.00022489,0.0,0 STARLINK-3735,1 52116U 22029AE  22207.91667824  .00022489  00000-0  14263-2 0  9999,2 52116  53.2162 252.7738 0002054  45.5727 277.5266 15.08846479 21236,6917.861,95.437,541.1469999999998,538.305,0.0
52116.0,STARLINK-3735,PAYLOAD,2022-07-27 06:00:02,15.08844896,0.0002049,53.2162,251.2779,44.4884,290.2468,-0.0015627,-0.00025076,0.0,0 STARLINK-3735,1 52116U 22029AE  22208.25002315 -.00025076  00000-0 -15627-2 0  9997,2 52116  53.2162 251.2779 0002049  44.4884 290.2468 15.08844896 21283,6917.865,95.437,541.148,538.313,0.0
52116.0,STARLINK-3735,PAYLOAD,2022-07-27 14:00:01,15.08811495,0.000221,53.216,249.7828,39.9909,306.2734,0.0026294,0.00041775,0.0,0 STARLINK-3735,1 52116U 22029AE  22208.58334491  .00041775  00000-0  26294-2 0  9990,2 52116  53.2160 249.7828 0002210  39.9909 306.2734 15.08811495  1309,6917.968000000003,95.439,541.361,538.304,0.0
